[{"OBJECT_NAME":"GAOFEN-5 02","OBJECT_ID":"2021-079A","EPOCH":"2026-03-09T22:28:30.715104","MEAN_MOTION":14.5772301,"ECCENTRICITY":3.379e-5,"INCLINATION":98.2675,"RA_OF_ASC_NODE":143.9335,"ARG_OF_PERICENTER":339.1436,"MEAN_ANOMALY":20.9749,"EPHEMERIS_TYPE":0,"CLASSIFICATION_TYPE":"U","NORAD_CAT_ID":49122,"ELEMENT_SET_NO":999,"REV_AT_EPOCH":23962,"BSTAR":9.830729e-5,"MEAN_MOTION_DOT":4.03e-6,"MEAN_MOTION_DDOT":0},{"OBJECT_NAME":"FENGYUN 1C DEB","OBJECT_ID":"1999-025ZN","EPOCH":"2026-03-09T22:56:33.570240","MEAN_MOTION":14.57158332,"ECCENTRICITY":0.00600466,"INCLINATION":98.635,"RA_OF_ASC_NODE":227.965,"ARG_OF_PERICENTER":23.4,"MEAN_ANOMALY":102.506,"EPHEMERIS_TYPE":0,"CLASSIFICATION_TYPE":"U","NORAD_CAT_ID":30301,"ELEMENT_SET_NO":999,"REV_AT_EPOCH":98485,"BSTAR":0.0037283259,"MEAN_MOTION_DOT":0.00017226,"MEAN_MOTION_DDOT":0}]
